H1 CPF  1  HTS 2022  7  4 12  6851 larets           NONE
H2  0304206 5557    27944 2022 07 04  0  0  0 2022 07 09  0  0  0   180 1 1  0 0 0
H5  0.0560 
H9 
10 0 59766  70920.00000  0    1162503.240   -6167572.368    3225089.998
10 0 59766  71100.00000  0     953497.971   -6704276.493    1985005.169
10 0 59766  71280.00000  0     698892.569   -6990198.571     671943.137
10 0 59766  71460.00000  0     414708.910   -7013843.544    -665830.492
10 0 59766  71640.00000  0     118229.107   -6773849.657   -1979126.586
10 0 59766  71820.00000  0    -172917.697   -6279047.394   -3219709.671
10 0 59766  72000.00000  0    -441673.904   -5548089.849   -4342122.395
10 0 59766  72180.00000  0    -672431.817   -4608674.899   -5305380.720
10 0 59766  72360.00000  0    -851825.065   -3496408.255   -6074462.228
10 0 59766  72540.00000  0    -969394.664   -2253377.196   -6621540.044
10 0 59766  72720.00000  0   -1018102.168    -926504.389   -6926929.938
10 0 59766  72900.00000  0    -994672.989     434244.668   -6979734.843
10 0 59766  73080.00000  0    -899758.350    1777735.170   -6778184.018
10 0 59766  73260.00000  0    -737912.799    3053557.154   -6329670.374
10 0 59766  73440.00000  0    -517389.981    4213890.900   -5650492.895
10 0 59766  73620.00000  0    -249761.268    5215291.758   -4765302.237
10 0 59766  73800.00000  0      50628.527    6020333.168   -3706255.245
10 0 59766  73980.00000  0     367348.415    6599046.486   -2511890.404
10 0 59766  74160.00000  0     682685.007    6930091.745   -1225753.140
10 0 59766  74340.00000  0     978526.989    7001602.506     105188.667
10 0 59766  74520.00000  0    1237287.659    6811652.454    1432281.437
10 0 59766  74700.00000  0    1442814.966    6368312.738    2706998.293
10 0 59766  74880.00000  0    1581239.526    5689302.369    3882744.934
10 0 59766  75060.00000  0    1641722.033    4801250.254    4916585.953
10 0 59766  75240.00000  0    1617061.312    3738600.713    5770819.579
10 0 59766  75420.00000  0    1504129.736    2542224.672    6414327.783
10 0 59766  75600.00000  0    1304124.555    1257818.536    6823670.898
10 0 59766  75780.00000  0    1022623.503     -65854.192    6983903.565
10 0 59766  75960.00000  0     669443.198   -1378805.543    6889092.936
10 0 59766  76140.00000  0     258302.728   -2631696.597    6542540.548
10 0 59766  76320.00000  0    -193700.528   -3777687.748    5956691.123
10 0 59766  76500.00000  0    -666783.056   -4774197.902    5152722.682
10 0 59766  76680.00000  0   -1139311.418   -5584514.441    4159838.738
10 0 59766  76860.00000  0   -1588761.868   -6179212.135    3014261.823
10 0 59766  77040.00000  0   -1992761.313   -6537300.358    1757933.958
10 0 59766  77220.00000  0   -2330160.590   -6647037.636     436973.764
10 0 59766  77400.00000  0   -2582081.579   -6506365.355    -900057.782
10 0 59766  77580.00000  0   -2732879.651   -6122930.948   -2204004.077
10 0 59766  77760.00000  0   -2770972.661   -5513696.917   -3426986.047
10 0 59766  77940.00000  0   -2689490.236   -4704155.122   -4524214.393
10 0 59766  78120.00000  0   -2486708.061   -3727194.310   -5455651.811
10 0 59766  78300.00000  0   -2166252.566   -2621695.637   -6187458.671
10 0 59766  78480.00000  0   -1737072.073   -1430929.405   -6693180.308
10 0 59766  78660.00000  0   -1213177.150    -200826.647   -6954641.802
10 0 59766  78840.00000  0    -613169.653    1021797.712   -6962535.517
10 0 59766  79020.00000  0      40422.292    2191006.464   -6716707.174
10 0 59766  79200.00000  0     721981.338    3263438.146   -6226143.909
10 0 59766  79380.00000  0    1403790.144    4199898.287   -5508665.538
10 0 59766  79560.00000  0    2057140.354    4966791.084   -4590315.627
10 0 59766  79740.00000  0    2653523.391    5537346.786   -3504466.018
10 0 59766  79920.00000  0    3165857.837    5892595.186   -2290645.576
10 0 59766  80100.00000  0    3569702.117    6022040.336    -993125.432
10 0 59766  80280.00000  0    3844392.890    5923998.255     340698.485
10 0 59766  80460.00000  0    3974046.733    5605572.311    1662061.235
10 0 59766  80640.00000  0    3948374.939    5082265.442    2922643.621
10 0 59766  80820.00000  0    3763268.746    4377252.030    4076372.503
10 0 59766  81000.00000  0    3421122.974    3520339.025    5081124.481
10 0 59766  81180.00000  0    2930883.774    2546682.093    5900264.188
10 0 59766  81360.00000  0    2307818.891    1495316.341    6503954.066
10 0 59766  81540.00000  0    1573035.984     407577.072    6870200.852
10 0 59766  81720.00000  0     752760.514    -674523.225    6985618.158
10 0 59766  81900.00000  0    -122597.618   -1709904.726    6845896.782
10 0 59766  82080.00000  0   -1019562.803   -2659972.564    6455968.481
10 0 59766  82260.00000  0   -1902861.064   -3490055.053    5829854.089
10 0 59766  82440.00000  0   -2736792.072   -4170681.427    4990207.422
10 0 59766  82620.00000  0   -3486678.009   -4678665.935    3967557.876
10 0 59766  82800.00000  0   -4120329.224   -4997948.061    2799242.641
10 0 59766  82980.00000  0   -4609449.562   -5120145.787    1528060.349
10 0 59766  83160.00000  0   -4930920.419   -5044793.268     200691.037
10 0 59766  83340.00000  0   -5067894.954   -4779240.811   -1134061.178
10 0 59766  83520.00000  0   -5010638.540   -4338217.438   -2427127.570
10 0 59766  83700.00000  0   -4757062.260   -3743073.075   -3631047.402
10 0 59766  83880.00000  0   -4312923.151   -3020747.619   -4701756.058
10 0 59766  84060.00000  0   -3691690.745   -2202531.143   -5600212.909
10 0 59766  84240.00000  0   -2914093.040   -1322681.346   -6293805.955
10 0 59766  84420.00000  0   -2007372.668    -416968.820   -6757488.289
10 0 59766  84600.00000  0   -1004289.748     478782.792   -6974617.619
10 0 59766  84780.00000  0      58078.941    1330099.911   -6937488.642
10 0 59766  84960.00000  0    1139701.693    2105162.949   -6647567.679
10 0 59766  85140.00000  0    2199081.057    2775975.825   -6115431.813
10 0 59766  85320.00000  0    3194829.123    3319368.988   -5360404.067
10 0 59766  85500.00000  0    4087272.080    3717800.952   -4409892.199
10 0 59766  85680.00000  0    4840035.486    3959936.797   -3298445.262
10 0 59766  85860.00000  0    5421548.339    4040976.319   -2066536.817
10 0 59766  86040.00000  0    5806392.285    3962713.797    -759109.205
10 0 59766  86220.00000  0    5976431.278    3733322.368     576071.329
10 0 59767      0.00000  0    5921661.765    3366869.452    1890183.815
10 0 59767    180.00000  0    5640734.685    2882584.006    3135172.948
10 0 59767    360.00000  0    5141118.751    2303915.520    4265539.882
10 0 59767    540.00000  0    4438895.862    1657431.754    5240022.026
10 0 59767    720.00000  0    3558211.071     971616.899    6023090.881
10 0 59767    900.00000  0    2530401.320     275628.297    6586222.951
10 0 59767   1080.00000  0    1392850.493    -401929.631    6908894.403
10 0 59767   1260.00000  0     187623.214   -1034165.308    6979296.366
10 0 59767   1440.00000  0   -1040087.204   -1596958.081    6794750.191
10 0 59767   1620.00000  0   -2243639.940   -2069875.784    6361811.052
10 0 59767   1800.00000  0   -3376701.776   -2436919.487    5696064.857
10 0 59767   1980.00000  0   -4395035.533   -2687078.649    4821626.552
10 0 59767   2160.00000  0   -5258262.072   -2814676.618    3770318.759
10 0 59767   2340.00000  0   -5931511.126   -2819482.475    2580550.611
10 0 59767   2520.00000  0   -6386893.462   -2706585.572    1295932.069
10 0 59767   2700.00000  0   -6604721.330   -2486036.312     -36343.770
10 0 59767   2880.00000  0   -6574399.029   -2172259.842   -1367285.143
10 0 59767   3060.00000  0   -6294931.626   -1783274.436   -2647971.166
10 0 59767   3240.00000  0   -5775018.176   -1339758.177   -3831413.492
10 0 59767   3420.00000  0   -5032734.922    -864016.852   -4874321.812
10 0 59767   3600.00000  0   -4094832.156    -378908.047   -5738698.719
10 0 59767   3780.00000  0   -2995686.439      93222.290   -6393200.140
10 0 59767   3960.00000  0   -1775970.837     531537.895   -6814216.357
10 0 59767   4140.00000  0    -481110.072     917600.286   -6986656.829
10 0 59767   4320.00000  0     840417.645    1236118.221   -6904430.803
10 0 59767   4500.00000  0    2138875.017    1475535.221   -6570631.302
10 0 59767   4680.00000  0    3365115.891    1628440.810   -5997420.497
10 0 59767   4860.00000  0    4472427.878    1691791.813   -5205608.234
10 0 59767   5040.00000  0    5418308.548    1666937.844   -4223941.327
10 0 59767   5220.00000  0    6166120.329    1559452.123   -3088108.666
10 0 59767   5400.00000  0    6686551.868    1378770.676   -1839482.278
10 0 59767   5580.00000  0    6958822.587    1137654.995    -523627.300
10 0 59767   5760.00000  0    6971560.233     851499.324     811372.258
10 0 59767   5940.00000  0    6723300.046     537518.090    2116698.064
10 0 59767   6120.00000  0    6222582.867     213852.756    3344618.770
10 0 59767   6300.00000  0    5487636.925    -101355.662    4450267.014
10 0 59767   6480.00000  0    4545667.889    -390876.643    5393289.484
10 0 59767   6660.00000  0    3431799.555    -639239.303    6139310.056
10 0 59767   6840.00000  0    2187716.919    -833479.250    6661151.196
10 0 59767   7020.00000  0     860081.741    -963751.476    6939785.496
10 0 59767   7200.00000  0    -501224.650   -1023788.028    6964998.581
10 0 59767   7380.00000  0   -1844966.927   -1011182.119    6735745.217
10 0 59767   7560.00000  0   -3120466.220    -927488.370    6260199.824
10 0 59767   7740.00000  0   -4279502.968    -778134.044    5555504.561
10 0 59767   7920.00000  0   -5278162.188    -572146.160    4647209.016
10 0 59767   8100.00000  0   -6078548.857    -321701.564    3568394.678
10 0 59767   8280.00000  0   -6650294.975     -41514.644    2358504.022
10 0 59767   8460.00000  0   -6971793.210     251912.552    1061909.244
10 0 59767   8640.00000  0   -7031089.812     541141.837    -273741.097
10 0 59767   8820.00000  0   -6826375.446     808707.998   -1599328.897
99
